[{"OBJECT_NAME":"FORTE","OBJECT_ID":"1997-047A","EPOCH":"2026-03-09T21:41:12.798240","MEAN_MOTION":14.27898785,"ECCENTRICITY":0.00196357,"INCLINATION":69.9517,"RA_OF_ASC_NODE":238.2652,"ARG_OF_PERICENTER":49.0734,"MEAN_ANOMALY":311.2084,"EPHEMERIS_TYPE":0,"CLASSIFICATION_TYPE":"U","NORAD_CAT_ID":24920,"ELEMENT_SET_NO":999,"REV_AT_EPOCH":48451,"BSTAR":0.0001374801,"MEAN_MOTION_DOT":2.83e-6,"MEAN_MOTION_DDOT":0},{"OBJECT_NAME":"FENGYUN 1C DEB","OBJECT_ID":"1999-025BDR","EPOCH":"2026-03-09T04:59:00.449376","MEAN_MOTION":14.0674592,"ECCENTRICITY":0.00819898,"INCLINATION":98.8205,"RA_OF_ASC_NODE":56.4753,"ARG_OF_PERICENTER":339.8662,"MEAN_ANOMALY":19.9279,"EPHEMERIS_TYPE":0,"CLASSIFICATION_TYPE":"U","NORAD_CAT_ID":31023,"ELEMENT_SET_NO":999,"REV_AT_EPOCH":70717,"BSTAR":0.00014358919,"MEAN_MOTION_DOT":2.02e-6,"MEAN_MOTION_DDOT":0}]
